H1 CPF  1  DLR 2021 09 06 10  7492 technosat            
H2  1704205 6203    42829 2021 09 06 00 00 00 2021 09 13 00 00 00    60 1 1  0 0 0
H9
10 0 59466      0.000000  0      -1921615.717       3577416.982       5671661.863
10 0 59466     60.000000  0      -1644107.334       3308347.967       5916236.290
10 0 59466    120.000000  0      -1362131.106       3022958.020       6135821.654
10 0 59466    180.000000  0      -1077007.714       2722412.052       6329493.658
10 0 59466    240.000000  0       -790060.078       2407949.398       6496436.756
10 0 59466    300.000000  0       -502607.340       2080878.763       6635947.430
10 0 59466    360.000000  0       -215958.851       1742572.766       6747437.076
10 0 59466    420.000000  0         68591.754       1394462.150       6830434.324
10 0 59466    480.000000  0        349772.326       1038029.789       6884586.886
10 0 59466    540.000000  0        626337.811        674804.469       6909662.960
10 0 59466    600.000000  0        897075.684        306354.448       6905552.224
10 0 59466    660.000000  0       1160811.208        -65719.203       6872266.383
10 0 59466    720.000000  0       1416412.494       -439789.482       6809939.264
10 0 59466    780.000000  0       1662795.349       -814210.528       6718826.381
10 0 59466    840.000000  0       1898927.862      -1187324.747       6599303.988
10 0 59466    900.000000  0       2123834.736      -1557470.056       6451867.808
10 0 59466    960.000000  0       2336601.399      -1922987.293       6277131.241
10 0 59466   1020.000000  0       2536377.807      -2282227.672       6075823.042
10 0 59466   1080.000000  0       2722381.948      -2633560.222       5848784.532
10 0 59466   1140.000000  0       2893903.009      -2975379.257       5596966.346
10 0 59466   1200.000000  0       3050304.184      -3306111.815       5321424.728
10 0 59466   1260.000000  0       3191025.163      -3624225.010       5023317.351
10 0 59466   1320.000000  0       3315584.282      -3928233.278       4703898.731
10 0 59466   1380.000000  0       3423580.332      -4216705.569       4364515.167
10 0 59466   1440.000000  0       3514693.922      -4488272.320       4006599.148
10 0 59466   1500.000000  0       3588688.412      -4741632.147       3631663.433
10 0 59466   1560.000000  0       3645410.508      -4975558.343       3241294.748
10 0 59466   1620.000000  0       3684790.429      -5188905.090       2837147.063
10 0 59466   1680.000000  0       3706841.634      -5380613.302       2420934.526
10 0 59466   1740.000000  0       3711660.139      -5549716.110       1994424.114
10 0 59466   1800.000000  0       3699423.434      -5695343.960       1559427.973
10 0 59466   1860.000000  0       3670388.938      -5816729.205       1117795.483
10 0 59466   1920.000000  0       3624892.074      -5913210.168        671405.204
10 0 59466   1980.000000  0       3563344.008      -5984234.828        222156.736
10 0 59466   2040.000000  0       3486229.041      -6029364.061       -228037.697
10 0 59466   2100.000000  0       3394101.520      -6048274.215       -677261.831
10 0 59466   2160.000000  0       3287582.340      -6040759.020      -1123603.869
10 0 59466   2220.000000  0       3167355.177      -6006730.949      -1565164.854
10 0 59466   2280.000000  0       3034162.494      -5946222.092      -2000067.002
10 0 59466   2340.000000  0       2888801.218      -5859384.411      -2426462.028
10 0 59466   2400.000000  0       2732118.147      -5746489.333      -2842539.254
10 0 59466   2460.000000  0       2565005.182      -5607926.773      -3246533.545
10 0 59466   2520.000000  0       2388394.293      -5444203.566      -3636732.963
10 0 59466   2580.000000  0       2203252.340      -5255941.301      -4011486.097
10 0 59466   2640.000000  0       2010575.798      -5043873.615      -4369209.026
10 0 59466   2700.000000  0       1811385.438      -4808843.001      -4708391.951
10 0 59466   2760.000000  0       1606720.972      -4551797.117      -5027605.457
10 0 59466   2820.000000  0       1397635.676      -4273784.649      -5325506.402
10 0 59466   2880.000000  0       1185190.997      -3975950.701      -5600843.387
10 0 59466   2940.000000  0        970451.190      -3659531.767      -5852461.773
10 0 59466   3000.000000  0        754478.020      -3325850.341      -6079308.250
10 0 59466   3060.000000  0        538325.549      -2976309.156      -6280434.956
10 0 59466   3120.000000  0        323035.049      -2612385.094      -6455003.148
10 0 59466   3180.000000  0        109630.063      -2235622.787      -6602286.398
10 0 59466   3240.000000  0       -100888.385      -1847627.952      -6721673.318
10 0 59466   3300.000000  0       -307546.373      -1450060.504      -6812669.830
10 0 59466   3360.000000  0       -509401.472      -1044627.413      -6874900.984
10 0 59466   3420.000000  0       -705546.949       -633075.392      -6908112.287
10 0 59466   3480.000000  0       -895115.757       -217183.416      -6912170.544
10 0 59466   3540.000000  0      -1077284.308        201244.846      -6887064.223
10 0 59466   3600.000000  0      -1251275.978        620388.699      -6832903.420
10 0 59466   3660.000000  0      -1416364.350       1038418.258      -6749919.390
10 0 59466   3720.000000  0      -1571876.169       1453502.345      -6638463.519
10 0 59466   3780.000000  0      -1717194.014       1863816.305      -6499005.886
10 0 59466   3840.000000  0      -1851758.720       2267549.885      -6332133.518
10 0 59466   3900.000000  0      -1975071.549       2662915.224      -6138548.120
10 0 59466   3960.000000  0      -2086696.018       3048154.734      -5919063.245
10 0 59466   4020.000000  0      -2186259.378       3421548.848      -5674601.097
10 0 59466   4080.000000  0      -2273453.846       3781423.727      -5406188.943
10 0 59466   4140.000000  0      -2348037.520       4126158.855      -5114955.036
10 0 59466   4200.000000  0      -2409834.967       4454194.455      -4802124.068
10 0 59466   4260.000000  0      -2458737.472       4764038.680      -4469012.198
10 0 59466   4320.000000  0      -2494702.943       5054274.540      -4117021.663
10 0 59466   4380.000000  0      -2517755.477       5323566.501      -3747634.993
10 0 59466   4440.000000  0      -2527984.589       5570666.760      -3362408.960
10 0 59466   4500.000000  0      -2525544.125       5794421.266      -2962968.182
10 0 59466   4560.000000  0      -2510650.865       5993775.367      -2550998.358
10 0 59466   4620.000000  0      -2483582.817       6167779.050      -2128239.146
10 0 59466   4680.000000  0      -2444677.164       6315591.630      -1696476.716
10 0 59466   4740.000000  0      -2394327.924       6436485.906      -1257536.162
10 0 59466   4800.000000  0      -2332983.352       6529851.875       -813273.766
10 0 59466   4860.000000  0      -2261143.060       6595199.953       -365569.119
10 0 59466   4920.000000  0      -2179354.907       6632163.790         83682.962
10 0 59466   4980.000000  0      -2088211.621       6640502.378        532580.796
10 0 59466   5040.000000  0      -1988347.147       6620101.436        979224.187
10 0 59466   5100.000000  0      -1880432.792       6570974.139       1421722.703
10 0 59466   5160.000000  0      -1765173.215       6493261.250       1858203.834
10 0 59466   5220.000000  0      -1643302.269       6387230.687       2286821.046
10 0 59466   5280.000000  0      -1515578.740       6253276.480       2705761.693
10 0 59466   5340.000000  0      -1382782.018       6091917.146       3113254.732
10 0 59466   5400.000000  0      -1245707.682       5903793.535       3507578.258
10 0 59466   5460.000000  0      -1105163.067       5689666.105       3887066.792
10 0 59466   5520.000000  0       -961962.859       5450411.666       4250118.352
10 0 59466   5580.000000  0       -816924.586       5187019.529       4595201.295
10 0 59466   5640.000000  0       -670864.108       4900587.004       4920860.680
10 0 59466   5700.000000  0       -524591.210       4592314.546       5225724.103
10 0 59466   5760.000000  0       -378905.355       4263500.657       5508507.256
10 0 59466   5820.000000  0       -234591.538       3915536.287       5768019.265
10 0 59466   5880.000000  0        -92416.225       3549898.728       6003167.569
10 0 59466   5940.000000  0         46876.548       3168145.143       6212962.273
10 0 59466   6000.000000  0        182568.918       2771905.885       6396520.052
10 0 59466   6060.000000  0        313972.753       2362877.525       6553067.698
10 0 59466   6120.000000  0        440433.042       1942815.560       6681945.230
10 0 59466   6180.000000  0        561331.060       1513526.854       6782608.517
10 0 59466   6240.000000  0        676087.313       1076861.897       6854631.397
10 0 59466   6300.000000  0        784164.240        634706.948       6897707.349
10 0 59466   6360.000000  0        885068.706        188976.046       6911650.777
10 0 59466   6420.000000  0        978354.220       -258397.155       6896397.884
10 0 59466   6480.000000  0       1063622.902       -705467.731       6852007.053
10 0 59466   6540.000000  0       1140527.203      -1150287.879       6778658.666
10 0 59466   6600.000000  0       1208771.342      -1590915.277       6676654.517
10 0 59466   6660.000000  0       1268112.452      -2025421.541       6546416.789
10 0 59466   6720.000000  0       1318361.482      -2451900.659       6388486.501
10 0 59466   6780.000000  0       1359383.794      -2868477.400       6203521.502
10 0 59466   6840.000000  0       1391099.418      -3273315.640       5992293.937
10 0 59466   6900.000000  0       1413483.056      -3664626.512       5755687.241
10 0 59466   6960.000000  0       1426563.824      -4040676.386       5494692.680
10 0 59466   7020.000000  0       1430424.706      -4399794.666       5210405.485
10 0 59466   7080.000000  0       1425201.717      -4740381.418       4904020.583
10 0 59466   7140.000000  0       1411082.786      -5060914.801       4576827.857
99
